[{"OBJECT_NAME":"STARLINK-33868","OBJECT_ID":"2025-087G","EPOCH":"2025-08-18T22:00:01.999584","MEAN_MOTION":15.30187066,"ECCENTRICITY":0.0001369,"INCLINATION":53.1608,"RA_OF_ASC_NODE":81.4031,"ARG_OF_PERICENTER":85.6619,"MEAN_ANOMALY":300.362,"EPHEMERIS_TYPE":0,"CLASSIFICATION_TYPE":"U","NORAD_CAT_ID":63703,"ELEMENT_SET_NO":999,"REV_AT_EPOCH":590,"BSTAR":0.00050787,"MEAN_MOTION_DOT":0.00014706,"MEAN_MOTION_DDOT":0},{"OBJECT_NAME":"STARLINK-33937","OBJECT_ID":"2025-087H","EPOCH":"2025-08-18T21:43:15.921696","MEAN_MOTION":15.39639037,"ECCENTRICITY":0.0001056,"INCLINATION":53.1583,"RA_OF_ASC_NODE":81.3804,"ARG_OF_PERICENTER":88.5093,"MEAN_ANOMALY":271.6032,"EPHEMERIS_TYPE":0,"CLASSIFICATION_TYPE":"U","NORAD_CAT_ID":63704,"ELEMENT_SET_NO":999,"REV_AT_EPOCH":1815,"BSTAR":0.00099692,"MEAN_MOTION_DOT":0.00039709,"MEAN_MOTION_DDOT":0},{"OBJECT_NAME":"STARLINK-33848","OBJECT_ID":"2025-087J","EPOCH":"2025-08-19T14:00:01.999872","MEAN_MOTION":15.3923281,"ECCENTRICITY":0.0001094,"INCLINATION":53.1591,"RA_OF_ASC_NODE":78.2876,"ARG_OF_PERICENTER":86.6044,"MEAN_ANOMALY":23.6224,"EPHEMERIS_TYPE":0,"CLASSIFICATION_TYPE":"U","NORAD_CAT_ID":63705,"ELEMENT_SET_NO":999,"REV_AT_EPOCH":1825,"BSTAR":-0.031689,"MEAN_MOTION_DOT":-0.01142752,"MEAN_MOTION_DDOT":0},{"OBJECT_NAME":"STARLINK-33995","OBJECT_ID":"2025-087K","EPOCH":"2025-08-18T21:01:45.302592","MEAN_MOTION":15.30208327,"ECCENTRICITY":0.0001241,"INCLINATION":53.1581,"RA_OF_ASC_NODE":81.9116,"ARG_OF_PERICENTER":85.5567,"MEAN_ANOMALY":274.5575,"EPHEMERIS_TYPE":0,"CLASSIFICATION_TYPE":"U","NORAD_CAT_ID":63706,"ELEMENT_SET_NO":999,"REV_AT_EPOCH":1814,"BSTAR":0.00046738,"MEAN_MOTION_DOT":0.00013512,"MEAN_MOTION_DDOT":0},{"OBJECT_NAME":"STARLINK-33982","OBJECT_ID":"2025-087L","EPOCH":"2025-08-18T22:00:01.999584","MEAN_MOTION":15.30189561,"ECCENTRICITY":0.0001237,"INCLINATION":53.1606,"RA_OF_ASC_NODE":81.3328,"ARG_OF_PERICENTER":88.2614,"MEAN_ANOMALY":332.6595,"EPHEMERIS_TYPE":0,"CLASSIFICATION_TYPE":"U","NORAD_CAT_ID":63707,"ELEMENT_SET_NO":999,"REV_AT_EPOCH":585,"BSTAR":0.00047626,"MEAN_MOTION_DOT":0.00013768,"MEAN_MOTION_DDOT":0},{"OBJECT_NAME":"STARLINK-33915","OBJECT_ID":"2025-087M","EPOCH":"2025-08-19T14:00:01.999872","MEAN_MOTION":15.35878919,"ECCENTRICITY":0.0001049,"INCLINATION":53.1603,"RA_OF_ASC_NODE":78.4155,"ARG_OF_PERICENTER":89.8902,"MEAN_ANOMALY":316.0132,"EPHEMERIS_TYPE":0,"CLASSIFICATION_TYPE":"U","NORAD_CAT_ID":63708,"ELEMENT_SET_NO":999,"REV_AT_EPOCH":1828,"BSTAR":-0.041464,"MEAN_MOTION_DOT":-0.01340393,"MEAN_MOTION_DDOT":0},{"OBJECT_NAME":"STARLINK-33862","OBJECT_ID":"2025-087N","EPOCH":"2025-08-18T20:36:31.991040","MEAN_MOTION":15.39650069,"ECCENTRICITY":4.83e-5,"INCLINATION":53.1578,"RA_OF_ASC_NODE":81.8051,"ARG_OF_PERICENTER":38.6751,"MEAN_ANOMALY":321.4288,"EPHEMERIS_TYPE":0,"CLASSIFICATION_TYPE":"U","NORAD_CAT_ID":63709,"ELEMENT_SET_NO":999,"REV_AT_EPOCH":1814,"BSTAR":0.0008755,"MEAN_MOTION_DOT":0.00034814,"MEAN_MOTION_DDOT":0},{"OBJECT_NAME":"STARLINK-33920","OBJECT_ID":"2025-087P","EPOCH":"2025-08-19T14:00:01.999872","MEAN_MOTION":15.34767999,"ECCENTRICITY":9.45e-5,"INCLINATION":53.1598,"RA_OF_ASC_NODE":78.5826,"ARG_OF_PERICENTER":72.6175,"MEAN_ANOMALY":248.8154,"EPHEMERIS_TYPE":0,"CLASSIFICATION_TYPE":"U","NORAD_CAT_ID":63710,"ELEMENT_SET_NO":999,"REV_AT_EPOCH":1824,"BSTAR":-0.042744,"MEAN_MOTION_DOT":-0.013338,"MEAN_MOTION_DDOT":0},{"OBJECT_NAME":"STARLINK-33580","OBJECT_ID":"2025-087Q","EPOCH":"2025-08-19T14:00:01.999872","MEAN_MOTION":15.30186576,"ECCENTRICITY":0.000109,"INCLINATION":53.1598,"RA_OF_ASC_NODE":78.6518,"ARG_OF_PERICENTER":105.4906,"MEAN_ANOMALY":180.5535,"EPHEMERIS_TYPE":0,"CLASSIFICATION_TYPE":"U","NORAD_CAT_ID":63711,"ELEMENT_SET_NO":999,"REV_AT_EPOCH":1824,"BSTAR":0.00099866,"MEAN_MOTION_DOT":0.00029323,"MEAN_MOTION_DDOT":0},{"OBJECT_NAME":"STARLINK-33783","OBJECT_ID":"2025-087R","EPOCH":"2025-08-19T14:00:01.999872","MEAN_MOTION":15.30186112,"ECCENTRICITY":0.000126,"INCLINATION":53.1607,"RA_OF_ASC_NODE":78.525,"ARG_OF_PERICENTER":79.0074,"MEAN_ANOMALY":271.0214,"EPHEMERIS_TYPE":0,"CLASSIFICATION_TYPE":"U","NORAD_CAT_ID":63712,"ELEMENT_SET_NO":999,"REV_AT_EPOCH":1825,"BSTAR":0.0010231,"MEAN_MOTION_DOT":0.00030052,"MEAN_MOTION_DDOT":0},{"OBJECT_NAME":"STARLINK-33773","OBJECT_ID":"2025-087S","EPOCH":"2025-08-18T21:50:26.001888","MEAN_MOTION":15.39638506,"ECCENTRICITY":3.59e-5,"INCLINATION":53.1583,"RA_OF_ASC_NODE":81.4111,"ARG_OF_PERICENTER":61.7697,"MEAN_ANOMALY":298.3344,"EPHEMERIS_TYPE":0,"CLASSIFICATION_TYPE":"U","NORAD_CAT_ID":63713,"ELEMENT_SET_NO":999,"REV_AT_EPOCH":1815,"BSTAR":0.0010604,"MEAN_MOTION_DOT":0.00042277,"MEAN_MOTION_DDOT":0},{"OBJECT_NAME":"STARLINK-33745","OBJECT_ID":"2025-087T","EPOCH":"2025-08-18T21:49:57.060480","MEAN_MOTION":15.39622844,"ECCENTRICITY":7.62e-5,"INCLINATION":53.1579,"RA_OF_ASC_NODE":81.409,"ARG_OF_PERICENTER":64.5945,"MEAN_ANOMALY":295.5139,"EPHEMERIS_TYPE":0,"CLASSIFICATION_TYPE":"U","NORAD_CAT_ID":63714,"ELEMENT_SET_NO":999,"REV_AT_EPOCH":1815,"BSTAR":0.0013137,"MEAN_MOTION_DOT":0.00052515,"MEAN_MOTION_DDOT":0},{"OBJECT_NAME":"STARLINK-33728","OBJECT_ID":"2025-087U","EPOCH":"2025-08-19T14:00:01.999872","MEAN_MOTION":15.34943041,"ECCENTRICITY":0.0001592,"INCLINATION":53.1594,"RA_OF_ASC_NODE":78.2186,"ARG_OF_PERICENTER":104.4221,"MEAN_ANOMALY":38.5,"EPHEMERIS_TYPE":0,"CLASSIFICATION_TYPE":"U","NORAD_CAT_ID":63715,"ELEMENT_SET_NO":999,"REV_AT_EPOCH":1825,"BSTAR":-0.042866,"MEAN_MOTION_DOT":-0.01344345,"MEAN_MOTION_DDOT":0},{"OBJECT_NAME":"STARLINK-33749","OBJECT_ID":"2025-087V","EPOCH":"2025-08-18T20:55:40.599552","MEAN_MOTION":15.30189921,"ECCENTRICITY":0.0001148,"INCLINATION":53.1592,"RA_OF_ASC_NODE":81.8832,"ARG_OF_PERICENTER":303.7996,"MEAN_ANOMALY":56.2896,"EPHEMERIS_TYPE":0,"CLASSIFICATION_TYPE":"U","NORAD_CAT_ID":63716,"ELEMENT_SET_NO":999,"REV_AT_EPOCH":1814,"BSTAR":0.00061715,"MEAN_MOTION_DOT":0.00017958,"MEAN_MOTION_DDOT":0},{"OBJECT_NAME":"STARLINK-33725","OBJECT_ID":"2025-087W","EPOCH":"2025-08-19T13:32:55.241664","MEAN_MOTION":15.3756561,"ECCENTRICITY":0.0001437,"INCLINATION":53.1584,"RA_OF_ASC_NODE":78.3853,"ARG_OF_PERICENTER":55.4519,"MEAN_ANOMALY":304.6621,"EPHEMERIS_TYPE":0,"CLASSIFICATION_TYPE":"U","NORAD_CAT_ID":63717,"ELEMENT_SET_NO":999,"REV_AT_EPOCH":1825,"BSTAR":0.00026022,"MEAN_MOTION_DOT":9.355e-5,"MEAN_MOTION_DDOT":0},{"OBJECT_NAME":"STARLINK-33641","OBJECT_ID":"2025-087X","EPOCH":"2025-08-19T14:00:01.999872","MEAN_MOTION":15.30185102,"ECCENTRICITY":0.0001189,"INCLINATION":53.1607,"RA_OF_ASC_NODE":78.3951,"ARG_OF_PERICENTER":95.1422,"MEAN_ANOMALY":318.8732,"EPHEMERIS_TYPE":0,"CLASSIFICATION_TYPE":"U","NORAD_CAT_ID":63718,"ELEMENT_SET_NO":999,"REV_AT_EPOCH":1825,"BSTAR":0.00097523,"MEAN_MOTION_DOT":0.00028622,"MEAN_MOTION_DDOT":0},{"OBJECT_NAME":"STARLINK-33727","OBJECT_ID":"2025-087Y","EPOCH":"2025-08-19T00:10:43.120128","MEAN_MOTION":15.39641357,"ECCENTRICITY":7.94e-5,"INCLINATION":53.158,"RA_OF_ASC_NODE":81.3093,"ARG_OF_PERICENTER":53.794,"MEAN_ANOMALY":306.3138,"EPHEMERIS_TYPE":0,"CLASSIFICATION_TYPE":"U","NORAD_CAT_ID":63719,"ELEMENT_SET_NO":999,"REV_AT_EPOCH":1816,"BSTAR":0.00092076,"MEAN_MOTION_DOT":0.00036633,"MEAN_MOTION_DDOT":0},{"OBJECT_NAME":"STARLINK-33757","OBJECT_ID":"2025-087Z","EPOCH":"2025-08-19T14:00:01.999872","MEAN_MOTION":15.30191922,"ECCENTRICITY":0.0001537,"INCLINATION":53.1606,"RA_OF_ASC_NODE":78.3362,"ARG_OF_PERICENTER":75.7351,"MEAN_ANOMALY":7.299,"EPHEMERIS_TYPE":0,"CLASSIFICATION_TYPE":"U","NORAD_CAT_ID":63720,"ELEMENT_SET_NO":999,"REV_AT_EPOCH":1825,"BSTAR":0.00089672,"MEAN_MOTION_DOT":0.00026287,"MEAN_MOTION_DDOT":0},{"OBJECT_NAME":"STARLINK-33774","OBJECT_ID":"2025-087AA","EPOCH":"2025-08-19T14:00:01.999872","MEAN_MOTION":15.34761352,"ECCENTRICITY":7.16e-5,"INCLINATION":53.1596,"RA_OF_ASC_NODE":78.5299,"ARG_OF_PERICENTER":80.7345,"MEAN_ANOMALY":266.36,"EPHEMERIS_TYPE":0,"CLASSIFICATION_TYPE":"U","NORAD_CAT_ID":63721,"ELEMENT_SET_NO":999,"REV_AT_EPOCH":1824,"BSTAR":-0.042979,"MEAN_MOTION_DOT":-0.01340181,"MEAN_MOTION_DDOT":0},{"OBJECT_NAME":"STARLINK-33767","OBJECT_ID":"2025-087AB","EPOCH":"2025-08-19T06:00:02.999808","MEAN_MOTION":15.30209637,"ECCENTRICITY":0.0001345,"INCLINATION":53.1598,"RA_OF_ASC_NODE":79.7482,"ARG_OF_PERICENTER":76.9177,"MEAN_ANOMALY":38.7751,"EPHEMERIS_TYPE":0,"CLASSIFICATION_TYPE":"U","NORAD_CAT_ID":63722,"ELEMENT_SET_NO":999,"REV_AT_EPOCH":1819,"BSTAR":-0.00070208,"MEAN_MOTION_DOT":-0.00021101,"MEAN_MOTION_DDOT":0},{"OBJECT_NAME":"STARLINK-33806","OBJECT_ID":"2025-087AC","EPOCH":"2025-08-19T06:00:02.999808","MEAN_MOTION":15.30211723,"ECCENTRICITY":0.0001198,"INCLINATION":53.1604,"RA_OF_ASC_NODE":79.8162,"ARG_OF_PERICENTER":78.677,"MEAN_ANOMALY":2.125,"EPHEMERIS_TYPE":0,"CLASSIFICATION_TYPE":"U","NORAD_CAT_ID":63723,"ELEMENT_SET_NO":999,"REV_AT_EPOCH":1820,"BSTAR":-0.00095516,"MEAN_MOTION_DOT":-0.00028551,"MEAN_MOTION_DDOT":0},{"OBJECT_NAME":"STARLINK-11677 [DTC]","OBJECT_ID":"2025-089A","EPOCH":"2025-08-18T20:52:54.156864","MEAN_MOTION":15.70869595,"ECCENTRICITY":8.62e-5,"INCLINATION":42.999,"RA_OF_ASC_NODE":75.0995,"ARG_OF_PERICENTER":226.1693,"MEAN_ANOMALY":133.9104,"EPHEMERIS_TYPE":0,"CLASSIFICATION_TYPE":"U","NORAD_CAT_ID":63751,"ELEMENT_SET_NO":999,"REV_AT_EPOCH":1823,"BSTAR":0.001279,"MEAN_MOTION_DOT":0.00167214,"MEAN_MOTION_DDOT":0},{"OBJECT_NAME":"STARLINK-11702 [DTC]","OBJECT_ID":"2025-089B","EPOCH":"2025-08-18T20:14:40.488288","MEAN_MOTION":15.70875177,"ECCENTRICITY":0.0003178,"INCLINATION":43.0042,"RA_OF_ASC_NODE":74.8855,"ARG_OF_PERICENTER":271.0437,"MEAN_ANOMALY":89.0066,"EPHEMERIS_TYPE":0,"CLASSIFICATION_TYPE":"U","NORAD_CAT_ID":63752,"ELEMENT_SET_NO":999,"REV_AT_EPOCH":1823,"BSTAR":0.0015477,"MEAN_MOTION_DOT":0.00203399,"MEAN_MOTION_DDOT":0}]
